[Satellite]
VERSION=1.1
NAME=STARLINK-5105
NICKNAME=STARLINK-5105
TLE1=1 54001U 22125AP  22297.25001157 -.00068909  00000+0 -49157-3 0  9997
TLE2=2 54001  53.2190   1.0816 0002712  27.6709 353.4101 15.73147798  3250
STATUS=0
